{
"type": "FeatureCollection",
"name": "zones_techniciens",
"crs": { "type": "name", "properties": { "name": "urn:ogc:def:crs:OGC:1.3:CRS84" } },
"features": [
{ "type": "Feature", "properties": { "technicien": "Ethaniel PEYRE", "secteurs": "[np.int64(22)]", "couleur": "#07cac9" }, "geometry": { "type": "Polygon", "coordinates": [ [ [ 5.4819958, 45.2737541 ], [ 5.3299807, 45.3623769 ], [ 5.5638002, 45.6336293 ], [ 5.6895058, 45.5288031 ], [ 5.7556642, 45.4366547 ], [ 5.8168373, 45.3468944 ], [ 5.8149165, 45.3426671 ], [ 5.6295267, 45.3011953 ], [ 5.4819958, 45.2737541 ] ] ] } },
{ "type": "Feature", "properties": { "technicien": "Franck EYRAUD", "secteurs": "[np.int64(77)]", "couleur": "#2e9904" }, "geometry": { "type": "Polygon", "coordinates": [ [ [ 5.741896, 45.1017315 ], [ 5.6972415, 45.122253 ], [ 5.663951, 45.2404967 ], [ 5.6658829, 45.2456323 ], [ 5.7558921, 45.1967369 ], [ 5.7702324, 45.1848438 ], [ 5.741896, 45.1017315 ] ] ] } },
{ "type": "Feature", "properties": { "technicien": "Heithem ABID", "secteurs": "[np.int64(12)]", "couleur": "#e50744" }, "geometry": { "type": "Polygon", "coordinates": [ [ [ 5.6812652, 45.7556073 ], [ 5.8076058, 46.1222557 ], [ 6.0592055, 46.3329432 ], [ 6.116169, 46.361457 ], [ 6.140077, 46.36247 ], [ 6.143558, 46.362239 ], [ 6.2426339, 46.2019817 ], [ 6.2353033, 46.191446 ], [ 5.6812652, 45.7556073 ] ] ] } },
{ "type": "Feature", "properties": { "technicien": "Jean-Paul SCARINGELLA", "secteurs": "[np.int64(75)]", "couleur": "#efe43c" }, "geometry": { "type": "Polygon", "coordinates": [ [ [ 5.7133503, 45.1877072 ], [ 5.7116991, 45.1908024 ], [ 5.7299048, 45.1923668 ], [ 5.7133503, 45.1877072 ] ] ] } },
{ "type": "Feature", "properties": { "technicien": "Julien TETU", "secteurs": "[np.int64(74)]", "couleur": "#2c90f2" }, "geometry": { "type": "Polygon", "coordinates": [ [ [ 6.0471494, 45.5016845 ], [ 5.911718, 45.556709 ], [ 5.884366, 45.583566 ], [ 5.906702, 45.5873925 ], [ 5.96013, 45.579544 ], [ 6.06252, 45.5039775 ], [ 6.06263, 45.5032456 ], [ 6.0471494, 45.5016845 ] ] ] } },
{ "type": "Feature", "properties": { "technicien": "Kalifa DIOMANDE", "secteurs": "[np.int64(54)]", "couleur": "#2a6a0c" }, "geometry": { "type": "Polygon", "coordinates": [ [ [ 5.8760667, 45.6372721 ], [ 5.8680202, 45.6430088 ], [ 5.9335582, 45.9024209 ], [ 6.3567838, 46.3196009 ], [ 6.4818576, 46.3711347 ], [ 6.5780422, 46.3987827 ], [ 6.716843, 46.3905902 ], [ 6.8695114, 45.923089 ], [ 6.8680384, 45.918712 ], [ 6.390235, 45.667102 ], [ 5.8760667, 45.6372721 ] ] ] } },
{ "type": "Feature", "properties": { "technicien": "Karim MOKNECHE", "secteurs": "[np.int64(30)]", "couleur": "#ba1f9a" }, "geometry": { "type": "Polygon", "coordinates": [ [ [ 4.7059111, 44.3704142 ], [ 4.4110665, 44.6185875 ], [ 5.7935951, 47.9382687 ], [ 5.3247357, 45.1407916 ], [ 5.0063113, 44.7374452 ], [ 4.7059111, 44.3704142 ] ] ] } },
{ "type": "Feature", "properties": { "technicien": "Léna GRAND CLEMENT", "secteurs": "[np.int64(68)]", "couleur": "#4d665d" }, "geometry": { "type": "Polygon", "coordinates": [ [ [ 5.7087231, 45.1727635 ], [ 5.6897508, 45.181343 ], [ 5.6661865, 45.1992213 ], [ 1.232606, 48.7842419 ], [ 5.7421325, 45.1980963 ], [ 5.7087231, 45.1727635 ] ] ] } },
{ "type": "Feature", "properties": { "technicien": "Martin DO NASCIMENTO", "secteurs": "[np.int64(52)]", "couleur": "#2f7c95" }, "geometry": { "type": "Polygon", "coordinates": [ [ [ 6.117893, 45.003871 ], [ 5.5452727, 45.0688104 ], [ 5.6708869, 45.1566382 ], [ 5.7558921, 45.1967369 ], [ 5.8218761, 45.1709086 ], [ 6.0366279, 45.0846992 ], [ 6.117893, 45.003871 ] ] ] } },
{ "type": "Feature", "properties": { "technicien": "Olivier VUILLAUME ", "secteurs": "[np.int64(62), np.int64(58)]", "couleur": "#65a60b" }, "geometry": { "type": "MultiPolygon", "coordinates": [ [ [ [ 5.6466599, 45.5160423 ], [ 5.5917826, 45.5543195 ], [ 5.5451327, 45.6077143 ], [ 5.5754794, 45.627165 ], [ 5.609815, 45.6109613 ], [ 5.697546, 45.53988 ], [ 5.6808196, 45.4947782 ], [ 5.6466599, 45.5160423 ] ] ], [ [ [ 5.0165665, 45.6134446 ], [ 4.902001, 45.6932654 ], [ 4.8426242, 45.7590217 ], [ 4.7766985, 45.8999984 ], [ 4.789212, 45.939352 ], [ 5.3329086, 45.9612007 ], [ 5.7017428, 45.7399621 ], [ 5.7030393, 45.7390239 ], [ 5.4470333, 45.5624539 ], [ 5.0165665, 45.6134446 ] ] ] ] } },
{ "type": "Feature", "properties": { "technicien": "Roman NOIREZ", "secteurs": "[np.int64(33)]", "couleur": "#02744e" }, "geometry": { "type": "Polygon", "coordinates": [ [ [ 5.7455992, 45.1587653 ], [ 5.7221871, 45.1594278 ], [ 5.6661865, 45.1992213 ], [ 5.6575319, 45.2080467 ], [ 5.6579229, 45.2150099 ], [ 5.6600789, 45.222144 ], [ 6.5507153, 46.0693198 ], [ 6.644658, 45.421508 ], [ 6.6636176, 45.1972649 ], [ 5.7455992, 45.1587653 ] ] ] } },
{ "type": "Feature", "properties": { "technicien": "Xavier VICTORION", "secteurs": "[np.int64(28)]", "couleur": "#2fb345" }, "geometry": { "type": "Polygon", "coordinates": [ [ [ 5.7509895, 44.8185021 ], [ 5.7058123, 45.179702 ], [ 5.7058042, 45.1798059 ], [ 5.712751, 45.1868074 ], [ 5.724419, 45.1905052 ], [ 5.7353243, 45.1914155 ], [ 5.7372358, 45.1910754 ], [ 5.750596, 45.1809011 ], [ 5.7509895, 44.8185021 ] ] ] } }
]
}
